Rank;Name;TotalNetWorth;LastChange;YTDChange;Country;Industry;Address;City;ZipCode;State;Social security number;UniqueID
1;Jeff Bezos;$188B;+$1.68B;-$2.31B ;United States;Technology;312 University Street;Redmond;98052;California;1947398318993;v6492635i
2;Elon Musk;$170B;-$2.89B;+$773M ;United States;Technology;689 Blane Street;Saint Louis;63146;Alabama;2003462168756;d8598818i
3;Bernard Arnault;$155B;+$892M;+$40.9B ;France;Consumer;45 rue de Lille;AsniÈres-sur-seine;92600;Île-de-France;1945693101116;k4660451e
4;Bill Gates;$144B;-$1.32B;+$12.2B ;United States;Technology;4232 Gnatty Creek Road;Huntington;11743;Illinois;2002454333455;k9035600c
5;Mark Zuckerberg;$114B;+$203M;+$10.9B ;United States;Technology;4471 Bailey Drive;Iowa City;52240;New Jersey;1949267600028;i5057001a
6;Warren Buffett;$108B;-$2.32B;+$20.6B ;United States;Diversified;2196 Sand Fork Road;South Bend;46625;Mississippi;2009528585452;z6173962s
7;Larry Page;$104B;-$1.12B;+$21.6B ;United States;Technology;878 Long Street;Ocala;34471;New York;2006620249840;o7375867t
8;Sergey Brin;$101B;-$1.06B;+$20.8B ;United States;Technology;4226 Lauren Drive;Fitchburg;53719;Missouri;1986921530659;j1340515e
9;Larry Ellison;$90.6B;-$2.46B;+$10.9B ;United States;Technology;4502 Mill Street;Townville;29689;Washington DC;1986793797759;a1279653j
10;Steve Ballmer;$89.1B;-$342M;+$8.71B ;United States;Technology;3461 Hillview Drive;Napa;94559;Minnesota;1972487143583;u6929414s
11;Francoise Bettencourt Meyers;$83.9B;-$1.33B;+$8.11B ;France;Consumer;84 rue des Soeurs;La Celle-saint-cloud;78170;Île-de-France;1964471857119;l2309676v
12;Amancio Ortega;$79.3B;-$1.07B;+$12.8B ;Spain ;Retail;Cartagena 51;Ceutí;30562;Murcia;1960049449668;k5956965p
13;Mukesh Ambani;$74.1B;+$402M;-$2.61B ;India;Energy;375, R-375, Midc Ind Area, Thane Belapur Rd, Ghansoli, Rabale, Navi Mumbai;Mumbai;400701;Maharashtra;1997276962842;f4192431n
14;Charles Koch;$64.3B;-$195M;+$7.42B ;United States;Industrial;3418 Hiddenview Drive;New York;10031;North Carolina;1968431817478;n5191223j
15;Julia Flesher Koch & Family;$64.3B;-$195M;+$7.42B ;United States;Industrial;822 Hemlock Lane;Harlingen;78550;Nebraska;2008767077199;h5086713d
16;Zhong Shanshan;$63.8B;-$289M;-$14.4B ;China;Diversified;Dong Fang Lu 8hao 11g;City Area - Pudongxin District;;Shanghai;1949619641968;n5067354e
17;Gautam Adani;$62.8B;+$210M;+$29.0B ;India;Industrial;8th Floor, Room No 81, Maker Chambers, Nariman Point;Mumbai;400021; Maharashtra;2005716311940;y7638552m
18;Jim Walton;$62.0B;-$508M;-$479M ;United States;Retail;2809 Selah Way;Burlington;5401;Illinois;1982138147441;p1570706p
19;Rob Walton;$61.5B;-$496M;-$1.11B ;United States;Retail;4872 Tori Lane;Salt Lake City;84116;Virginia;1950773854403;x6590264m
20;Alice Walton;$60.1B;-$489M;-$2.25B ;United States;Retail;2827 Hickory Ridge Drive;Rixeyville;22737;Washington DC;1990665363912;b5780028b
21;Ma Huateng;$58.4B;-$985M;+$1.94B ;China;Technology;Qi Jia Wan 88hao Nan Jing Fu Hai Zhuang Shi Gong Si;Nanjing - Baixia District;; Jiangsu;1948616071781;l6915194u
22;MacKenzie Scott;$57.0B;+$582M;-$1.49B ;United States;Technology;3376 Joyce Street;Fowl River;36523;Texas;1988513485086;r3742293n
23;Carlos Slim;$56.5B;-$348M;+$158M ;Mexico;Diversified;HEROES DE LA INDEPENDENCIA NO. 1104 C, KILLIAN, 37260;Guanajuato;37260;León;2000503542191;f2860876m
24;Francois Pinault;$53.7B;-$697M;+$5.93B ;France;Consumer;75 place Maurice-Charretier;Champs-sur-marne;77420;Île-de-France;1975850346322;f9143457d
25;Phil Knight & Family;$53.3B;+$123M;-$622M ;United States;Consumer;606 Platinum Drive;New Stanton;15672;New York;1982348458861;w8432332g
26;Michael Dell;$50.4B;-$849M;+$10.2B ;United States;Technology;2142 Trouser Leg Road;Springfield;1109;Massachusetts;1992929552765;r5717371n
27;Jack Ma;$49.6B;+$208M;-$945M ;China;Technology;17hao Lou 1801shi;City Area - Chaoyang District;; Beijing;2000621445215;e9735461j
28;Jacqueline Badger Mars;$44.8B;-$234M;+$3.00B ;United States;Food & Beverage;523 Driftwood Road;San Jose;95129;Texas;1979483547050;w9245049t
29;John Mars;$44.8B;-$234M;+$3.00B ;United States;Food & Beverage;4485 Asylum Avenue;Birmingham;35203;Texas;1950520768842;w4049445l
30;Zhang Yiming;$44.5B;$0;+$19.5B ;China;Technology;Chao Yang Lu 65hao Xiang Zhou Yi Yuan Er Lou Hu Li Shi;Zhuhaishi;; Guangdong;1953576755549;i9185290r
31;Colin Huang;$44.3B;+$1.49B;-$18.3B ;China;Technology;Xin Ji Jia Yuan 9hao Lou 2men 406;City Area - Chaoyang District;; Beijing;2000172843332;d5880048q
32;Alain Wertheimer;$43.8B;-$649M;+$4.35B ;France;Consumer;14 rue des Soeurs;La Garde;83130;Provence-Alpes-Côte d'Azur;2000994001081;c9973793p
33;Gerard Wertheimer;$43.8B;-$649M;+$4.35B ;France;Consumer;70 Rue du Limas;Beaune;21200;Bourgogne;1985032401754;v6032003y
34;Tadashi Yanai;$40.8B;-$165M;-$4.42B ;Japan;Retail;478-1167, Shibasakicho;Tachikawa-shi;;Tokyo;1987047402500;g1692078x
35;Len Blavatnik;$39.8B;-$471M;+$1.65B ;United States;Diversified;177 Farland Street;Chicago;60620;Texas;1999584576214;o1099181n
36;Giovanni Ferrero & Family;$35.1B;+$319M;+$1.01B ;Italy;Food & Beverage;Via Piccinni 39;Bonea;82013;Benevento;1985949302046;l1705148o
37;Miriam Adelson;$33.9B;-$535M;+$33.9B ;United States;Entertainment;2493 Mahlon Street;Jersey City;7305;Ohio;2008562224103;n6023789g
38;Klaus-Michael Kuehne;$33.8B;-$466M;+$9.69B ;Germany;Industrial;Güntzelstrasse 97;Piesport;54498;Rhineland-Palatinate;1957285953642;y4257948w
39;Masayoshi Son;$33.8B;-$2.30B;+$5.98B ;Japan;Technology; 210-1051, Shinwa;Misato-shi;; Saitama;2000030101116;i1901382z
40;William Ding;$33.7B;+$264M;+$3.26B ;China;Technology;Jiang Ning Lu 1158hao You Li Guo Ji Da Xia 703b;City Area - Putuo District;; Shanghai;1949936761212;o4841947h
41;Vladimir Potanin;$33.6B;+$202M;+$3.60B ;Russia;Commodities;Eremenko Marshala Ul., bld. 32, appt. 5;Smolensk;;Smolenskaya oblast;1973339888326;w1419283u
42;Li Ka-shing;$32.9B;-$219M;+$1.78B ;Hong Kong;Real-Estate;Wing Ming Ind Centre;Cheung Sha Wan;;Hong Kong;1958442807171;y5203253p
43;Zeng Yuqun;$32.8B;-$208M;+$1.84B ;Hong Kong;Industrial;Kingpower Coml Bldg;Wan Chai;;Hong Kong;1945286892372;t7646182i
44;Yang Huiyan;$31.9B;-$1.15B;+$1.91B ;China;Real-Estate;Gui Cheng Li Jing Hua Yuan Si Zuo 502;Fushan - Nanhai District;; Guangdong;2005128292307;u6067765c
45;Azim Premji;$31.4B;-$347M;+$6.01B ;India;Technology;62, Golden Plaza, Avenue Road, Avenue Road;Bangalore;560002; Karnataka;1961722364840;d2522400x
46;He Xiangjian;$31.3B;+$35.6M;-$5.48B ;China;Consumer;Gan Lu Yuan Zhong Li 9hao Lou 1men 502;City Area - Chaoyang District;; Beijing;1973309051319;z1922612y
47;Gina Rinehart;$31.2B;-$8.31M;+$2.52B ;Australia;Commodities;45 Learmouth Street;DORODONG;3799;Victoria;1974057571827;o8226532v
48;Leonard Lauder;$30.6B;-$337M;+$2.77B ;United States;Consumer;4724 Mcwhorter Road;Jackson;39201;New Jersey;2001655040566;c2358234p
49;Dan Gilbert;$30.4B;-$774M;-$2.86B ;United States;Real-Estate;901 Cherry Ridge Drive;Rochester;14620;New Jersey;1997736007039;j5009775r
50;Qin Yinglin;$29.8B;-$8.44M;+$7.03B ;China;Food & Beverage;Dong 11hao Lou Xi 705shi;City Area - Haidian District;; Beijing;1995959388880;x9509890h
51;James Dyson;$29.5B;-$302M;+$5.62B ;United Kingdom;Consumer;57 Ermin Street;Wyke;SP8 1BJ;Washington;1958334689871;n8745138x
52;Vladimir Lisin;$29.2B;+$59.5M;+$5.33B ;Russia;Industrial;Stachki, bld. 197, appt. 70;Rostov-na-donu;;Rostovskaya oblast;1978346828573;q2345542s
53;Jim Ratcliffe;$29.1B;+$76.0M;+$1.89B ;United Kingdom;Industrial;15 Southern Way;North Oakley; RG26 6FY;Missouri;1984646018537;i7813448i
54;Alexey Mordashov;$28.9B;-$241M;+$5.88B ;Russia;Industrial;Vologodskaya, bld. 64, appt. 108;Ufa;;Respublika Bashkortostan;1998092190645;n2930201a
55;Leonid Mikhelson;$28.2B;-$44.2M;+$3.43B ;Russia;Energy;Novosibirskaya, bld. 41, appt. 57;Voronezh;;Voronezhskaya oblast;1948410700492;u6453292y
56;Takemitsu Takizaki;$27.9B;-$626M;-$4.46B ;Japan;Technology; 287-1167, Minamicho;Nishitokyo-shi;; Tokyo;1974482765992;l9240234t
57;Stephen Schwarzman;$27.5B;-$229M;+$5.94B ;United States;Finance;689 Blane Street;Saint Louis;63146;Missouri;1969697349643;s5197741p
58;Pallonji Mistry;$27.4B;-$72.4M;+$2.89B ;Ireland;Industrial;1A Donegall Sq. East;Belfast;;County Antrim;1964601094443;s7748389i
59;Pang Kang;$27.1B;+$1.33B;-$4.83B ;China;Food & Beverage;Yin Que Shan Lu 70hao Yao Cai Zhan Jia Shu Yuan;Linyi - Lanshan District;;  Shandong;1977989557996;b1739257v
60;Leonardo Del Vecchio;$27.0B;-$377M;+$2.27B ;Italy;Consumer; Via Nazionale 56; Untereggen;39050; Bolzano;1996284201015;y4626744g
61;Dieter Schwarz;$26.9B;-$16.7M;+$588M ;Germany;Retail;Waldowstr. 34;Dietramszell;83623;Free State of Bavaria;1994236682518;d8209729m
62;Abigail Johnson;$26.5B;-$706M;+$2.51B ;United States;Finance;431 Rhode Island Avenue;Washington;20011;Indiana;1955994611531;r7123951b
63;Jiang Rensheng;$26.0B;-$668M;+$7.70B ;China;Health Care;Bei Er Qi Lu 110hao;Zhengzhou - Jinshui District;;  Henan;1988592966770;i7186929o
64;Iris Fontbona & Family;$25.7B;-$107M;+$5.45B ;Chile;Commodities;Avenida Los Libertadores, 735;Las Condes;;El Monte;1980370721462;p1925747u
65;Jorge Paulo Lemann';$25.6B;-$395M;+$1.75B ;Brazil;Food & Beverage;Rua 12 1613;Luziânia;83301-057;Goiás;1949192111225;n4666598u
66;Susanne Klatten;$25.5B;-$223M;+$2.57B ;Germany;Industrial;Gotzkowskystraße 77;Moers;47445;North Rhine-Westphalia;1947354604292;u1538781x
67;Zhang Zhidong;$25.1B;-$451M;+$833M ;China;Technology;Xin Jie Kou Nan Da Jie 44hao;City Area - Xicheng District;;  Beijing;1978787534242;e6017194k
68;James Simons;$25.1B;-$100M;+$2.28B ;United States;Finance;3602 Laurel Lee;Minneapolis;55415;South Carolina;2006213119993;l1282031m
69;Stefan Persson;$24.6B;-$536M;+$3.43B ;Sweden;Retail;Mållångsbo 9;Alstersbruk;940 26;;2001968588519;r6592457k
70;Andrew Forrest;$24.5B;-$635M;+$2.14B ;Australia;Commodities;37 Cherry Grove;TEMMA;7330;Tasmania;1990766796008;d6498012d
71;Li Xiting;$24.2B;+$340M;+$919M ;Singapore;Health Care;496C Tampines St 43 #06-255;Singapore;526496;;2006421607042;r7585964q
72;Lei Jun;$24.0B;-$527M;-$7.30B ;China;Technology;Lang Mao Shan Lu Yun Qu Shan Zhuang 3-3-601;Jinan - Shizhong District;;  Shandong;1981992315524;n2956318a
73;Lee Shau Kee;$23.7B;-$420M;+$2.58B ;Hong Kong;Real-Estate;Room 1108 11 / F Manchester Tower 46 Pak Tin Par Street . N. T.;Tsuen Wan District;;Hong Kong;1960017893230;a2770914q
74;Eric Schmidt;$23.6B;-$251M;+$4.14B ;United States;Technology;2502 Bryan Street;Lexington;27292;Alabama;1973692722740;l5108547q
75;Shiv Nadar;$23.2B;-$102M;-$904M ;India;Technology;227, 1st Floor, Fountain Plaza, Pantheon Road, Egmore;Chennai;600008; Tamil Nadu;1961528888622;r4738850p
76;Henry Cheng;$23.1B;-$320M;+$2.79B ;Hong Kong;Retail;King's Road;Eastern District;;Hong Kong;2000250696242;s9335620e
77;Ken Griffin;$22.6B;-$150M;+$1.40B ;United States;Finance;1163 Poling Farm Road;Elkhorn;68022;Hawaii;1989259536508;j7193142k
78;Carl Icahn;$22.5B;-$158M;+$2.31B ;United States;Diversified;3824 Trainer Avenue;Bloomington;61701;North Carolina;1940753271079;v6149441r
79;Elaine Marshall;$22.1B;-$174M;+$2.58B ;United States;Industrial;609 Meadowview Drive;Harrisonburg;22801;South Carolina;1983597214134;j7473796y
80;Laurene Powell Jobs;$21.9B;-$189M;+$616M ;United States;Media & Telecom;2155 Rhode Island Avenue;Washington;20005;Kansas;1986671840593;v2426079s
81;John Menard;$21.7B;-$648M;+$3.30B ;United States;Retail;3581 Hill Haven Drive;Marlin;76661;Florida;1958267245494;c1519387p
82;Goh Cheng Liang;$21.7B;-$974M;-$5.87B ;Singapore;Industrial; 52 International Road 03-02;Singapore;619626;;1968485600829;p5275601u
83;Thomas Peterffy;$21.5B;-$232M;+$1.95B ;United States;Finance;996 Duncan Avenue;Whitestone;11357;Pennsylvania;1943537487308;s2725826r
84;Stefan Quandt;$21.4B;-$227M;+$2.60B ;Germany;Industrial;Borstelmannsweg 62;Michelau;97513;Free State of Bavaria;1968308275054;r6610323c
85;Sara Mota de Larrea & Family;$21.1B;$21.1B;+$65.5M;Mexico;Commodities;ESCOBEDO 61 PTE NO. S/N, CULIACAN CENTRO, 80000; Sinaloa;80000; Culiacán;1972885311901;j3470064q
86;Alisher Usmanov;$20.9B;+$160M;-$192M ;Russia;Diversified;Krupskoy Ul., bld. 13, appt. 180;Bratsk;;Irkutskaya oblast;1968747624156;d4412047n
87;Lakshmi Mittal;$20.9B;-$252M;+$4.48B ;India;Retail;A/4 Sarvodaya Nagar, Panrapole Road, Cp Tank, Girgaum;Mumbai;400004; Maharashtra;1990891196425;x4697801k
88;Robert Kuok;$20.8B;-$178M;+$3.37B ;Malaysia;Diversified;2 Jln 11/118B Desa Tun Razak;Kuala Lumpur;56000;Wilayah Persekutuan;1960616612001;f1607977y
89;Lukas Walton;$20.5B;-$175M;-$2.05B ;United States;Retail;4922 Lynn Street;Boston;2110;Maryland;1961542207528;x1829553m
90;Ernesto Bertarelli & Family;$20.3B;-$175M;+$288M ;Switzerland;Diversified;Damunt 7;Oberlunkhofen;8917;;1972133498593;u3558092t
91;Hui Ka Yan;$20.3B;-$426M;-$2.98B ;China;Real-Estate;（ Zhi Yi Yuan ）;Zhengzhoushi;;  Henan;1996260429117;c8579143n
92;Peter Woo;$20.0B;-$410M;+$2.00B ;Hong Kong;Real-Estate;8/F Peninsular Tower 538 Castle Peak Road Cheung Sha Wan Kowloon;Sham Shui Po District;;Hong Kong;1983826597126;j3004575p
93;Donald Newhouse;$20.0B;-$222M;+$1.53B ;United States;Media & Telecom;1531 Emma Street;Lubbock;79410;Wisconsin;1980029906958;s3454421t
94;Chen Bang;$20.0B;+$583M;-$517M ;China;Health Care;Yan Jiang Zhong Lu 195hao Yan Jiang Da Xia 3lou;Guangzhou - Yuexiu District;;  Guangdong;1944747071892;p7121981e
95;Xu Hang;$20.0B;+$280M;+$757M ;Hong Kong;Health Care;Leader Ind Centre;Sha Tin;;Hong Kong;2009128940933;s9281533u
96;Vagit Alekperov;$20.0B;-$286M;+$2.71B ;Russia;Energy;Novosibirskaya, bld. 50, appt. 53;Tyumen;;Tyumenskaya oblast;1975076064574;q5475201n
97;Lui Che-Woo;$19.6B;-$467M;+$1.20B ;Hong Kong;Entertainment;Wu Sang Hse;Mong Kok;;Hong Kong;1987778904960;j6536211p
98;Roman Abramovich;$19.2B;-$132M;+$778M ;Russia;Diversified;Lenina, bld. 122/2, appt. 91;Magnitogorsk;;CHelyabinskaya oblast;1960054879293;q4235943r
99;Thomas Frist;$19.1B;-$383M;+$3.28B ;United States;Health Care;4288 Echo Lane;Nacogdoches;75964;New Mexico;1962872533302;m9861192w
100;Gennady Timchenko;$18.6B;-$45.6M;+$1.97B;Russia;Diversified;Koroleva, bld. 16, appt. 14;Rostov-na-donu;;Rostovskaya oblast;1962779321158;q9724280o
101;Wang Xing;$18.4B;-$1.03B;-$3.41B ;China;Technology;Qian Jin Yi Lu Yu Jing Tai San Dong Wu Dan Yuan 910;Shenchou;;  Guangdong;1998028146211;b3759087h
102;Dietrich Mateschitz;$18.4B;-$80.3M;+$228M ;Austria;Food & Beverage;Untere Neugasse 71;Lechnerschaft;9872;Carinthia;1972780058629;o9517186y
103;Wang Wei;$18.3B;+$61.8M;-$6.83B ;China;Services;Wen Hua Jie Yin Ji Hua Yuan 9-1-102;Yinchuanshi;;  Ningxia Hui Autonomous Region;1947296084025;h5248853u
104;Dustin Moskovitz;$18.2B;-$8.67M;+$1.48B ;United States;Technology;116 Burwell Heights Road;Vidor;77662;Kentucky;2003963334257;h9893738i
105;Lee Man Tat;$17.6B;+$154M;-$854M ;Hong Kong;Food & Beverage;Toi Shan Centre Wan Chai;Wan Chai District;;Hong Kong;1947951874746;j4330091h
106;Charlene de Carvalho-Heineken;$17.3B;-$282M;+$1.25B ;Netherlands;Food & Beverage;Kuilenstraat 38;Meerssen;6231 AW;Limburg;1991243576773;k1082807f
107;Andrey Melnichenko;$17.2B;-$52.3M;-$916M ;Russia;Industrial;Dundicha Oleko Ul., bld. 35/31, appt. 161;Sankt-peterburg;;Leningradskaya oblast;1975373419671;r2084991h
108;Viktor Vekselberg;$17.1B;-$123M;+$1.01B ;Russia;Industrial;CHelyuskintsev Ul., bld. 17, appt. 78;Novosibirsk;;Novosibirskaya oblast;1956622771271;d5696951x
109;Ray Dalio;$17.0B;$0;+$1.52B ;United States;Finance;2295 Cedarstone Drive;Toledo;43604;Texas;1985350614235;h4210474x
110;Reinhold Wuerth;$16.9B;-$359M;+$595M ;Germany;Industrial;Gruenauer Strasse 48;Schwarzenbek;21486;Schleswig-Holstein;2005109964218;s3212462c
111;Thomas Struengmann;$16.9B;-$300M;+$6.71B ;Germany;Health Care;Schmarjestrasse 61;garbage rose;15296;Brandenburg;2001605344630;c7837798g
112;Andreas Struengmann;$16.9B;-$275M;+$6.73B ;Germany;Health Care;Lietzenburger Strasse 24;Cheeky;50226;North Rhine-Westphalia;1944638282032;x6984612g
113;Alwaleed Bin Talal;$16.7B;+$57.9M;+$484M ;Saudi Arabia;Diversified;Hofuf;Al Hasa;;Al Hasa;1942685864544;q1956627a
114;Eduardo Saverin;$16.6B;+$29.9M;+$1.81B ;Brazil;Technology;Rua Expedicionário Carlos Alberto F. Bahr 1809;Piraquara;65631-700;Paraná;1985485717451;d9630254n
115;Wu Yajun;$16.6B;-$407M;+$442M ;China;Real-Estate;Dong Ju Zi 1hao Jun Shi Jiao Tong Xue Yuan Ke Yan Bu Bian Ji Bu;City Area;;Tianjin;1952784205653;b5037655x
116;Zhong Huijuan;$16.6B;-$987M;-$3.23B ;China;Health Care;Bei Yuan Hong Jun Ying Nan Lu Lv Se Jia Yuan Mei Ti Cun Tian Chang Yuan 7hao Lou 806;City Area - Chaoyang District;;  Beijing;1979973335642;o5400300m
117;Sun Piaoyang;$16.5B;+$596M;-$4.77B ;China;Health Care;Zhu Yuan Lu Wan Feng Jia Yuan 9chuang 106shi;Suzhou - Wuzhong District;;Jiangsu;2009120134209;x1879155o
118;Gustaf Douglas & Family;$16.5B;-$359M;+$3.02B ;Sweden;Diversified; Eggelstad 23; Bureå; 930 15;;1984904137639;y1759141d
119;Aliko Dangote;$16.4B;+$113M;-$1.39B ;Nigeria;Industrial;Akin-Delu Street, Ikate, Surulere;Lagos;;Lagos;1978150034556;k1512973h
120;Richard Liu;$16.4B;+$316M;-$3.30B ;China;Technology;Xi Nan Lu Lv Zhou Yuan 65-5hao Gong Jian Sang Di Mi Feng;Dalian - Ganjingzi District;;Liaoning;1941750642664;x8232141r
121;Li Shu Fu;$16.4B;-$473M;-$5.78B ;China;Industrial;Hai Jiang Lu 667long 6hao 101shi;City Area - Baoshan District;;Shanghai;1979525421102;g1721316j
122;Cyrus Poonawalla;$16.2B;-$45.0M;-$25.5M ;India;Health Care;81gbzrblr-4, Basavangaudi;Bangalore;560004; Karnataka;2008155766709;p6128179u
123;Budi Hartono;$16.2B;+$111M;-$1.15B ;Indonesia;Diversified;Jl Kom L Yos Sudarso 333 RT 04/07;Dki Jakarta;14320;Jakarta;1969910421480;r1297172r
124;Hasso Plattner;$16.0B;-$252M;+$771M ;Germany;Technology;Eschenweg 38;Apolda;99501;Free State of Thuringia;1969015188966;w1693811b
125;Wang Wenyin;$15.9B;-$456M;+$6.04B ;China;Commodities;4hao Lou 2duan Dan Yuan 5men;City Area;;Beijing;2001720539996;b1361287i
126;Ernie Garcia;$15.9B;-$243M;+$418M ;United States;Consumer;3915 Beechwood Avenue;Piscataway;8854;Wyoming;1977788288783;k4291029m
127;Ned Johnson III;$15.7B;-$393M;+$1.98B ;United States;Finance;3225 Sweetwood Drive;Elwood;8217;Idaho;1959775098402;i1997485h
128;Charoen Sirivadhanabhakdi;$15.7B;-$177M;-$23.7M ;Thailand;Food & Beverage;2506 Moo 2 Ladprao Road Klongchan;Bangkok;10240;Bangkok;1954730956618;b4742732i
129;Donald Bren;$15.7B;$0;+$930M ;United States;Real-Estate;2384 Briarwood Road;Springfield;65806;Oklahoma;1977933674992;v7962706a
130;Ricardo Salinas;$15.5B;-$52.8M;+$2.57B ;Mexico;Diversified;AVE TECNOLOGICO NO. 2212 NO. C, EL MARQUIZ, 32536; Chihuahua;32536; Ciudad Juarez;1978613138575;m3087642y
131;Patrick Soon-Shiong;$15.5B;-$355M;+$4.89B ;United States;Health Care;3566 Fowler Avenue;Williamsport;47993;Tennessee;2001521725741;e6286171k
132;Philip Anschutz;$15.4B;-$105M;+$1.64B ;United States;Diversified;3277 Java Lane;Rion;29132;California;2008215106999;k2500942w
133;Radhakishan Damani;$15.4B;+$8.99M;+$481M ;India;Retail;3-69, Balanagar;Hyderabad;500042; Andhra Pradesh;1987057672679;y4031072b
134;Michael Hartono;$15.2B;+$105M;-$1.12B ;Indonesia;Diversified;Jl Erlangga II 12;Dki Jakarta;12110;Jakarta;1981783473277;q7729878p
135;Ma Jianrong;$15.0B;-$357M;+$1.87B ;China;Consumer;Hui Zhou Shi Jin Shan Dao Shan Shui Hua Fu A3-222;Huizhou - Huicheng District;;Guangdong;1992241793005;n9758156t
136;Jorge Moll & Family;$15.0B;-$179M;+$608M ;Brazil;Health Care;Rua Oito 639;Timon;14164-030;Maranhão;1965641601591;z7162553v
137;Charles Ergen;$14.8B;-$100M;+$4.15B ;United States;Media & Telecom;2 Marcus Street;Huntsville;35802;Wisconsin;1982506083342;l8590454l
138;Dave Duffield;$14.7B;+$202M;+$41.5M ;United States;Technology;3134 Horner Street;Honolulu;96822;Colorado;1982772702899;v5606977a
139;Eric Yuan;$14.7B;+$556M;-$1.72B ;United States;Technology;1422 Twin Willow Lane;Fayetteville;28301;Florida;1955183379049;e2872233o
140;Uday Kotak;$14.6B;-$359M;-$1.75B ;India;Finance;16, Dr Dvg Road, Basavanagudi;Bangalore;560004; Karnataka;2005337780395;v7921340o
141;David Tepper;$14.4B;-$25.0M;+$1.61B ;United States;Finance;3569 Kessla Way;Florence;29501;Michigan;1994423496637;s5852658o
142;Karl Albrecht Jr.;$14.3B;+$11.7M;+$306M ;Germany;Retail;Lange Strasse 32;Oberschleissheim;85759;Free State of Bavaria;1992129235489;l1511559f
143;Beate Heister;$14.3B;+$11.7M;+$306M ;Germany;Retail;Sonnenallee 33;Augsburg;86161;Free State of Bavaria;2008807205041;q9394318y
144;Zuo Hui;$14.2B;+$428M;-$3.92B ;China;Real-Estate;Xue Fu Ya Yuan;Dazhou - Tongchuan District;;Sichuan;1947095792476;r7350969c
145;Jim Goodnight;$14.2B;-$275M;+$1.11B ;United States;Technology;4693 Charter Street;Linwood;66052;Oregon;1966607115317;m4007748m
146;Patrick Drahi;$14.2B;-$27.1M;-$95.8M ;France;Media & Telecom;2 rue Gustave Eiffel;RezÉ;44400;Pays de la Loire;1944647693863;w2101806y
147;Su Hua;$14.1B;-$789M;+$6.92B ;China;Technology;Jian Jiang Zhong Lu 32hao ， Qian Nan Zhou Zhong Yi Yuan Gu Er Ke;Qiannanbuyizumiaozuautonomous prefecture;;Guizhou;1971484003978;r2977091o
148;Huang Shilin;$14.1B;-$88.0M;+$779M ;China;Industrial;Qi Li Gang Zhen Jia Ri Da Jiu Dian Xi Ce Dong Fang Qi Che Xiu Li Chang;Wenzhou - Leqingshi;;Zhejiang;1964619965026;p6059425c
149;Scott Farquhar;$13.8B;+$511M;-$534M ;Australia;Technology;52 Rose Street;MILLGROVE;3799;Victoria;1960642176798;l9206748t
150;Mike Cannon-Brookes;$13.8B;+$511M;-$534M ;Australia;Technology;70 Jacabina Court;LAKE HEIGHTS;2502;New South Wales;2001300466468;n9574946x
151;Mikhail Fridman;$13.8B;-$159M;-$628M ;Russia;Diversified;91 Kvartal, bld. 3, appt. 53;Angarsk;;Irkutskaya oblast;1995932913094;s9477823m
152;Robin Li;$13.7B;+$439M;-$1.94B ;China;Technology;Jiang Jia Yuan 120xiang 8hao 3dan Yuan 103;Nanjingshi;;Jiangsu;1941908021076;a4328659q
153;Chen Zhiping;$13.6B;-$122M;-$2.05B ;China;Consumer;Zhang Qiao Lu 301hao Zhang Qiao Lu Xiao Xue;City Area - Hongkou District;;Shanghai;1973870543086;o9947669w
154;Mikhail Prokhorov;$13.6B;-$27.6M;+$780M ;Russia;Diversified;Krasninskaya 2 Ul., bld. 9/А, appt. 3;Smolensk;;Smolenskaya oblast;1942832048424;j5195050e
155;Jensen Huang;$13.5B;+$36.5M;+$1.19B ;United States;Technology;3256 Poplar Lane;Miramar;33025;Ohio;1963174369835;y6096291y
156;Fan Hongwei;$13.4B;-$667M;+$902M ;China;Energy;Liao Ning Sheng Da Lian Wa Fang Dian Shi Xi Huan Jie Xi Shan Yuan 252hao Run Ze Shan Zhuang Nan Ce;Dalian - Wafangdianshi;;Liaoning;1987205058696;z4011669b
157;Jim Davis;$13.3B;+$328M;-$428M ;United States;Consumer;3632 Linda Street;Philadelphia;19108;Michigan;1982794445243;w7302785j
158;Joseph Tsai;$13.2B;+$72.8M;+$603M ;Canada;Technology;944 Halsey Avenue;Toronto;M3B 2W6;Ontario;2001599202276;k1569035s
159;Hugh Grosvenor;$13.2B;$0;+$525M ;United Kingdom;Real-Estate;20 Haslemere Roa;Eastriggs; DG12 8RT;New York;1997848453765;n1758607x
160;Alejandro Santo Domingo & Family;$13.0B;-$178M;+$521M ;Colombia;Food & Beverage;Cra.39 No.47-36, Ap.201;Antioquia;;Antioquia;1977137980560;y4741328h
161;Cen Junda;$12.9B;+$157M;-$4.01B ;China;Health Care;Wen Zhou Shang Mao Cheng;Huanggang - Huangzhou District;;Hubei;1947714719591;s8285881k
162;Jan Koum;$12.9B;-$75.0M;+$850M ;United States;Technology;69 Adams Avenue;Frederick;21701;Pennsylvania;1980028202562;k1028800b
163;Wang Jianlin;$12.8B;-$125M;-$2.30B ;China;Real-Estate;Fu Rong Lu 6hao 7037shi Shi Ye Dan Wei Deng Ji Guan Li Ju;Yantai - Laishan District;;Shandong;1991348972367;r8167567i
164;Zhou Qunfei;$12.7B;+$76.9M;-$2.29B ;China;Technology;Gong Shang Ju Su She 3dong 1604;Nanning - Qingxiu District;;Guangxi;2009110951276;f9038330f
165;Victor Rashnikov;$12.6B;-$99.8M;+$1.46B ;Russia;Industrial;Kutuzova Ul., bld. 92, appt. 34;Krasnoyarsk;;Krasnoyarskiy kray;1962154562686;n1191496v
166;Raymond Kwok;$12.6B;-$160M;+$1.42B ;Hong Kong;Real-Estate;14 Shek Lung St;Yau Ma Tei;;Hong Kong;1971727279783;b6251492m
167;Forrest Li;$12.6B;+$346M;+$1.65B ;Singapore;Technology; 3015 Bedok North Street 5 06-20;Singapore;486350;;2002319794371;n2411552c
168;Sherry Brydson;$12.6B;-$49.4M;+$1.61B ;Canada;Media & Telecom;961 7th Ave;Calgary;T2P 0W4;Alberta;1973477023074;q5340846q
169;Dang Yanbao;$12.6B;-$909M;+$3.18B ;China;Energy;Shi Ji Cheng San Qi Chun Yin Yuan 9-3-9c;City Area - Haidian District;;Beijing;1966522941465;q2502733v
170;Lee Jae-Yong & Family;$12.6B;-$271M;-$15.4B ;Korea;Diversified;-3, Igog 2(i)-dong;Dalseo-gu;;Daegu;1968194197364;j3650168b
171;Paolo Rocca  & Family;$12.6B;-$109M;+$2.58B ;Italy;Commodities; Via delle Azalee 86; Castellania;15051; Alessandria;1993428191472;z5594489w
172;Wu Shaoxun;$12.5B;+$242M;-$3.91B ;China;Food & Beverage;3dong 6c;Shenchou - Luohu District;;Guangdong;2006899674004;r3969228p
173;Wang Chuan-Fu;$12.5B;-$59.5M;-$3.59B ;China;Consumer;An De Lu Jia 61hao Gong Ren Ri Bao She 8lou;Beijing;;Beijing;1980916903039;u4404479s
174;Carl Cook;$12.5B;-$251M;+$1.86B ;United States;Health Care;3216 Woodlawn Drive;Milwaukee;53213;Minnesota;1982567500854;k9355642g
175;Jack Dorsey;$12.5B;+$229M;-$177M ;United States;Technology;3831 Center Avenue;Cuervo;88417;Missouri;2005986101817;n7196273u
176;Robert Pera;$12.4B;+$263M;+$211M ;United States;Technology;4050 Cerullo Road;Louisville;40299;New York;2000188000820;d4695068l
177;Leng You-Bin;$12.4B;+$367M;+$1.61B ;China;Consumer;Ru Dong Lu 5hao 3hao Lou 2dan Yuan 503shi;Qingdao - Shinan District;;Shandong;1950488849513;u4947531n
178;Melker Schorling;$12.2B;-$300M;+$856M ;Sweden;Diversified; Mjövattnet 7; Docksta; 870 33;;1955367111693;v5826545g
179;Charles Schwab;$12.2B;-$107M;+$2.33B ;United States;Finance;2791 Birch Street;El Paso;79922;Maryland;1991593893927;h7663784g
180;Brian Chesky;$12.2B;-$306M;-$311M ;United States;Services;199 Public Works Drive;Hyattville;82428;Texas;1944911362791;b5982152i
181;Marcel Telles;$12.2B;-$178M;+$857M ;Brazil;Food & Beverage;Rua Giovani Sarni 887;Sertãozinho;89803-490;São Paulo;1966817982381;m3071475m
182;Thomas Kwok;$12.1B;-$152M;+$1.35B ;Hong Kong;Real-Estate;Manley Coml Bldg;Sheung Wan;;Hong Kong;1950014315568;r2422592a
183;Dilip Shanghvi;$12.1B;+$207M;+$1.89B ;India;Health Care;K21, Kmc Cplx, Kumberpet Mn Rd, Kumbarpet;Bangalore;560002;  Karnataka;2006689774791;p4004198p
184;Pierre Omidyar;$12.1B;+$115M;+$837M ;United States;Technology;4607 Science Center Drive;Coeur D Alene;83814;Illinois;1972656264481;f8710620t
185;Savitri Jindal;$11.9B;-$266M;+$4.59B ;India;Commodities;A 298, New Friends Colony;Delhi;110065;  Delhi;1979729958884;y4176539z
186;Gong Hongjia;$11.8B;-$20.8M;+$1.73B ;China;Technology;Zun Yi Lu 57hao Zhan Lan Guan;Guiyang - Nanming District;;Guizhou;1942084715103;p8463033n
187;Brian Armstrong;$11.7B;+$369M;+$1.55B ;United States;Technology;2754 Henry Ford Avenue;Tulsa;74145;Alabama;1971906062228;p8994013s
188;Liu Yongxing;$11.6B;+$321M;+$1.81B ;China;Industrial;Hai Nan Sheng Hai Kou Shi Hai Xiu Lu Yi Long Heng Lu 12hao;Haikou - Longhua District;;Hainan;1959816439054;y4470850l
189;Patrick Collison;$11.4B;$0;+$7.08B ;Ireland;Technology;34 Main St.;Carrickmacross;;County Monaghan;1946923640284;v1212070n
190;John Collison;$11.4B;$0;+$7.08B ;Ireland;Technology;Unit 4F Fingal Bay Business Pk Balbriggan Co;Balbriggan;;County Dublin;1947620348293;p1012255d
191;Harry Triguboff;$11.3B;$0;+$1.58B ;Australia;Real-Estate;26 Muscat Street;UCARTY;6462;Western Australia;1957946710516;z1851320q
192;Gordon Moore;$11.3B;-$173M;+$1.00B ;United States;Technology;4534 Woodridge Lane;Memphis;38134;Washington;1941606014843;k6558729v
193;Micky Arison;$11.2B;-$83.4M;+$1.14B ;United States;Entertainment;1384 Brannon Street;Los Angeles;90057;Colorado;1988810078207;g5366314f
194;Cheng Yixiao;$11.2B;-$626M;+$5.49B ;China;Technology;Aqu 8hao Lou 4dan Yuan 501shi;Tongliao - Keerqin District;;Inner;1943554297387;m6341293b
195;Marijke Mars;$11.2B;-$58.2M;+$748M ;United States;Food & Beverage;4329 Christie Way;Loganville;53943;Illinois;2004305700485;v1353079m
196;Victoria Mars;$11.2B;-$58.2M;+$748M ;United States;Food & Beverage;1768 Timberbrook Lane;Mountain View;82939;New York;1974823521232;o6070890d
197;Pamela Mars-Wright;$11.2B;-$58.2M;+$748M ;United States;Food & Beverage;3772 Village View Drive;Immokalee;33934;Washington;2004048577227;j5465544o
198;Valerie Mars;$11.2B;-$58.2M;+$748M ;United States;Food & Beverage;3049 Ben Street;Lansing;48933;New York;1941528761188;a6437047r
199;Eyal Ofer;$11.1B;-$86.4M;+$747M ;Israel;Services;Hamagid Street 5 Israel 93114;Jerusalem;;;1951653268814;i4215986l
200;Stefano Pessina;$11.0B;-$151M;+$2.29B;Monaco;Retail;5 Impasse de la Fontaine;Monaco;98000;Monaco;1984565606561;d5705676d
201;Heinrich Deichmann & Family;$11.0B;-$164M;+$453M ;Germany;Retail;Holstenwall 74;Mansfeld;6340;Saxony-Anhalt;2002279976927;e6086688r
202;David Sun;$11.0B;-$547M;+$962M ;United States;Technology;4613 Karen Lane;Portland;97218;Georgia;1967828584631;y1043825d
203;John Tu;$11.0B;-$547M;+$962M ;United States;Technology;2186 Pursglove Court;Dayton;45429;West Virginia;1954674623354;z8731567o
204;Anders Holch Povlsen & Family;$11.0B;-$160M;+$1.63B ;Denmark;Retail;Strandgade 55;Frederiksberg C;1926;Region Sjælland;1965151834390;c1098306s
205;Bobby Murphy;$10.9B;+$230M;+$828M ;United States;Technology;879 Geraldine Lane;Burlington;49029;Pennsylvania;1997060932220;k8313614t
206;Graeme Hart;$10.9B;-$20.9M;-$918M ;New Zealand;Finance;129 Clements Crescent;Queenwood;3210;Hamilton;1955778664023;r4206863u
207;Leon Black;$10.9B;-$35.6M;+$892M ;United States;Finance;3287 Harley Brook Lane;Kane;16735;Texas;1974983396081;s9285036o
208;David Geffen;$10.8B;-$57.4M;-$267M ;United States;Entertainment;513 Orchard Street;Eden Prairie;55344;Texas;1997997068497;y7920248l
209;Steve Cohen;$10.8B;-$8.82M;+$652M ;United States;Finance;4697 Allison Avenue;Winona;65588;New York;1992445720647;l4765776z
210;Dmitry Rybolovlev;$10.8B;-$28.3M;+$421M ;Russia;Diversified;Pr.lenina, bld. 59, appt. 6;Nizhniy Tagil;;Sverdlovskaya oblast;2002700565824;a8518175o
211;Ding Shizhong;$10.8B;-$213M;+$1.04B ;China;Consumer;Ruan Jian Da Dao 50hao Zhong Xing Tong Xun 1hao Lou;Nanjing - Yuhuatai District;;Jiangsu;2007859346136;y8431438a
212;Emmanuel Besnier;$10.8B;-$96.6M;+$583M ;France;Food & Beverage;12 avenue Voltaire;MÂcon;71000;Bourgogne;1993732664913;t8903752p
213;Liu Yonghao;$10.8B;+$72.2M;-$2.60B ;China;Diversified;Dong Yue Da Jie 59hao Yi Dong Gong Si Wang Luo;Taian - Taishan District;;Shandong;1996349721265;j3725355i
214;Wei Jianjun;$10.7B;-$325M;-$2.07B ;China;Consumer;Guan Zhuang Bai Lin Ai Le Si Qi 22hao Lou 3dan Yuan 101;City Area;;Beijing;1983342156673;l5747276o
215;Reinhold Schmieding;$10.7B;-$98.8M;+$1.95B ;United States;Health Care;2247 Lakeland Terrace;Henderson;13650;Idaho;2003828495477;n8233754d
216;Carlos Sicupira;$10.6B;-$141M;+$584M ;Brazil;Food & Beverage;Rua Ferdinando Ricieri Tussetti 503;Chapecó;90240-113;Santa Catarina;2006193376807;o5404326b
217;Frank Wang;$10.6B;+$144M;+$940M ;China;Technology;Liu Tai Da Dao 555hao Xi Nan Cai Jing Da Xue Zhu C312;Chengdushi;;Sichuan;2009989603964;w8843363l
218;Li Shuirong;$10.6B;-$1.03B;-$1.19B ;China;Energy;Zheng Fu Xing Zheng Shen Pi Da Ting Shang Wu Ju Chuang Kou;Qingdao - Shinan District;;Shandong;1990392498957;d7244744g
219;Pham Nhat Vuong;$10.5B;-$128M;+$2.01B ;Vietnam;Real-Estate;9 Str. 885, Phu Huu Ward, Dist.9;Ho Chi Minh City;;Ho Chi Minh City;1960951830896;d3032357m
220;Michael Kadoorie;$10.5B;-$131M;+$645M ;Hong Kong;Energy;10 Knutsford Ter;Tsim Sha Tsui;;Hong Kong;1973800493235;f9038576f
221;Ding Shijia;$10.5B;-$207M;+$1.01B ;China;Consumer;Ding Xiang Lu 1089long 7hao 701;Shanghai;;Shanghai;1956307726397;o7888582u
222;Seo Jung-Jin;$10.4B;-$227M;-$4.66B ;Korea;Health Care;604-2, Choji-dong;Danwon-gu Ansan-si;;Gyeonggi-do;1948249621047;w2440018x
223;Stan Druckenmiller;$10.4B;+$4.60B;+$4.60B ;United States;Finance;3016 Calvin Street;Columbia;21046;Indiana;1964071896312;n8334943a
224;Kumar Birla;$10.4B;-$62.6M;+$3.55B ;India;Industrial;4/19, 3, Kala Bhavan, Mathew Road, Girgaon;Mumbai;400004;  Maharashtra;1982767339456;r2059515d
225;Kim Jung-Ju;$10.4B;-$284M;+$51.1M ;Korea;Technology;996-8, Haengsin 1(il)-dong;Deogyang-gu Goyang-si;;Gyeonggi-do;1945158837301;z6932725p
226;Georg Schaeffler;$10.3B;-$203M;-$409M ;Germany;Industrial;Genterstrasse 60;Kiel;24146;Schleswig-Holstein;2002125451448;y5685677j
227;Rinat Akhmetov;$10.3B;-$85.2M;+$2.81B ;Ukraine;Industrial;Leningradskiy Pr., bld. 15;Mariupol;;Donetskaya oblast;1990653902534;o1311725c
228;Blair Parry-Okeden;$10.3B;-$124M;+$1.04B ;United States;Media & Telecom;293 Scenicview Drive;Athens;75751;Arkansas;1982627937770;f8350484b
229;Jim Kennedy;$10.3B;-$99.0M;+$1.04B ;United States;Media & Telecom;4790 Kembery Drive;Oswego;60543;Maryland;2009736364569;b5239695v
230;Suleiman Kerimov;$10.3B;+$17.5M;+$398M ;Russia;Commodities;Pr Stroiteley, bld. 27, appt. 131;Saratov;;Saratovskaya oblast;1976993221089;b2285634g
231;Brian Kim;$10.3B;-$159M;+$3.34B ;Korea;Technology;8-11, Mansu 3(sam)-dong;Namdong-gu;;Incheon;1977823849252;z4378494v
232;Shu Ping;$10.3B;+$307M;-$4.26B ;Singapore;Food & Beverage; 511 Guillemard Rd #02-04;Singapore;729030;;1980972795023;m9753645k
233;Evan Spiegel;$10.3B;+$183M;+$827M ;United States;Technology;4487 Retreat Avenue;Birmingham;35209;New York;2009776079327;f9149265f
234;Michael Platt;$10.2B;-$100M;+$5.35B ;United Kingdom;Finance;40 Manor Way;Great Paxton; PE19 9DG;Iowa;1996139821992;a6927048j
235;Qi Shi;$10.2B;+$201M;+$41.0M ;China;Finance;Fu Tian Cun Niu Xiang Fang 69hao 602（ Fu Xing Wo Er Ma Hou Mian ）;Shenchou - Futian District;;Guangdong;1951227704509;w1744162v
236;Zhang Yong;$10.2B;+$307M;-$4.26B ;Singapore;Food & Beverage; 1 SUNGEI KADUT INDUSTRIAL ESTATE STREET 4;Singapore;886500;;1948427155024;n2429503t
237;Jay Chaudhry;$10.2B;+$254M;-$1.64B ;United States;Technology;2225 Lodgeville Road;Pacific;98047;Wisconsin;1950882635390;i9631733y
238;Anthony Pratt;$10.2B;-$55.2M;+$2.38B ;Australia;Industrial;42 Paradise Falls Road;BOBINAWARRAH;3678;Victoria;1984716505541;j6695787u
239;Johann Graf;$10.1B;$0;+$50.0M ;Austria;Entertainment;Ortsstrasse 93;Wildberg;4202;Lower Austria;1943170774249;j6916711t
240;Dietmar Hopp;$10.1B;-$179M;+$432M ;Germany;Technology;Anhalter Strasse 41;Becherbach;67827;Rhineland-Palatinate;1940185101058;r9829236w
241;Michael Otto;$10.1B;-$96.6M;+$72.6M ;Germany;Retail;Paderborner Strasse 65;Kammlach;87754;Free State of Bavaria;1955413981529;t1957159u
242;Antonia Axson Johnson;$10.1B;-$57.9M;+$973M ;Sweden;Industrial; Liljerum Grenadjärtorpet 61; Solna; 171 18;;1974268661662;q7656875f
243;George Roberts;$10.0B;-$96.7M;+$1.66B ;United States;Finance;916 Carolina Avenue;Loveland;80537;Arizona;1957063427855;y8162603e
244;Nathan Blecharczyk;$9.99B;-$278M;-$271M ;United States;Services;4668 Little Acres Lane;Golden;62339;Tennessee;1964034375140;v7089786q
245;Joe Gebbia;$9.97B;-$278M;-$295M ;United States;Services;113 Oakwood Avenue;Manhattan;10016;Louisiana;1953590267018;f9929911r
246;Gianluigi Aponte;$9.95B;$0;+$392M ;Switzerland;Services;Wolfensbergstrasse 108;Ringoldswil;3656;;1963529483012;y8271803j
247;John Fredriksen;$9.91B;-$103M;+$1.21B ;Cyprus;Industrial;83 Neapoleos Street;Paphos;;Paphos;1964433010869;v5644598a
248;Yao Liangsong;$9.86B;-$258M;+$1.45B ;China;Retail;Jin Yuan Lu 13hao 1301shi;City Area - Jiangbei District;;Chongqing;1963617519792;b4901013k
249;Giorgio Armani;$9.77B;-$352M;+$2.14B ;Italy;Consumer; Via Campi Flegrei 70; Locorotondo;70010; Bari;1992194851840;o4180082j
250;Sarath Ratanavadi;$9.77B;-$19.6M;+$510M ;Thailand;Energy;359/4 Ma Maison Condominium Soi 94 Latprao;Wangthonglang;10310;Bangkok;1991404261931;y6462720o
251;Henry Kravis;$9.76B;-$117M;+$1.52B ;United States;Finance;1019 Goodwin Avenue;Wenatchee;98801;Connecticut;1956624182819;g5280010x
252;Christy Walton;$9.76B;-$73.7M;-$244M ;United States;Retail;2014 Bell Street;New York;10011;California;1998530565440;d3895716q
253;Luis Sarmiento;$9.75B;-$7.99M;-$947M ;Colombia;Finance;Cl 105A No. 15B-03 VILLA SARA, C.P 68001;Bucaramanga;;Bucaramanga;1950897266244;c7150305v
254;Cai Kui;$9.74B;-$220M;+$467M ;China;Real-Estate;Chuang Shi Ji Bin Hai Hua Yuan 3# 9b;Shenchou - Nanshan District;;Guangdong;1960101027047;h2326268t
255;Stan Kroenke;$9.72B;$0;+$1.37B ;United States;Real-Estate;2436 Davis Street;Athens;30601;Massachusetts;1970916394557;v9693718p
256;Niels Louis-Hansen;$9.68B;-$195M;+$389M ;Denmark;Health Care;Ladbyvej 49;Pandrup;9490; Region Nordjylland;1985407871607;r6008776s
257;Les Wexner;$9.65B;-$100M;+$1.68B ;United States;Retail;4621 Kelly Drive;Charleston;25301;Georgia;1988865365124;r1017008z
258;Sunil Mittal;$9.59B;-$57.8M;+$696M ;India;Media & Telecom;3b 24, B P, Faridabad, Faridabad;Delhi;121001;  Delhi;2002712270070;u8798709z
259;Tobi Lutke;$9.57B;+$231M;-$264M ;Canada;Technology;2421 Algoma St;Thunder Bay;P7A 4T3;Ontario;1952306701541;o4363767u
260;Alberto Bailleres;$9.57B;-$87.6M;-$698M ;Mexico;Commodities;4A NORTE PONIENTE NO. 1664 1ER PISO, BONAPAK, 29080; Chiapas;29080; Tuxtla Gutiérrez;2005832143215;p3528862c
261;Tito Beveridge;$9.55B;-$84.6M;+$2.63B ;United States;Consumer;894 Coplin Avenue;Olyphant;18447;Florida;1943321596272;v3073595v
262;Anthony Bamford & Family;$9.51B;-$204M;+$1.69B ;United Kingdom;Industrial;74 Merthyr Road;Burmarsh; TN29 4TX;Indiana;1962496279779;r9466703j
263;Tim Sweeney;$9.47B;-$25.0M;+$25.0M ;United States;Technology;4649 Richland Avenue;Sugar Land;77487;California;2000697942626;p4025254j
264;Zhao Yan;$9.47B;+$239M;+$2.40B ;China;Health Care;Mei 9 B311;Nanjing - Jiangning District;;Jiangsu;1944775532288;h2812646c
265;Jorn Rausing;$9.46B;-$118M;-$337M ;Sweden;Services; Södra Kroksdal 87; Töreboda; 545 38;;1940631230212;r5615709q
266;Zhang Bangxin;$9.43B;-$182M;-$3.11B ;China;Services;Fu Yuan Dao 77hao;City Area - Wuqing District;;Tianjin;1942595719001;g4576972p
267;August von Finck;$9.42B;-$111M;-$23.2M ;Germany;Diversified;Genterstrasse 17;Badendorf;23619;Schleswig-Holstein;1990359326483;o7740823j
268;Andy Beal;$9.40B;-$67.8M;+$599M ;United States;Finance;1671 Colonial Drive;El Campo;77437;Pennsylvania;1976561639955;j5233787s
269;George Lucas;$9.40B;-$95.7M;+$220M ;United States;Entertainment;3685 Grove Street;Brentwood;11717;California;1952439380116;z9103901p
270;German Khan;$9.39B;-$89.8M;-$395M ;Russia;Diversified;Zorge R. Ul., bld. 26, appt. 3;Volzhskiy;;Volgogradskaya oblast;1961957923497;s1290440e
271;Wee Cho Yaw;$9.39B;-$135M;+$917M ;Singapore;Finance;  10 Anson Road #10-10 INTERNATIONAL PLAZA;Singapore;609206;;1991665836645;l8184089e
272;Denise Coates;$9.37B;-$565M;-$876M ;United Kingdom;Entertainment;35 Nottingham Rd;Aberffrwd; SY23 2BR;Florida;1972722648848;m1258046f
273;Alexander Abramov;$9.34B;-$51.0M;+$956M ;Russia;Industrial;Gagarina 3 Mikrorayon, bld. 27, appt. 6;Zlatoust;;CHelyabinskaya oblast;1982322863853;q2733189i
274;Qian Dongqi;$9.32B;-$313M;+$4.10B ;China;Technology;Xin Yang Lu Kang Mei Hua Yuan 6dong 2dan Yuan 602;Nanningshi;;Guangxi;1974905837336;l3782084c
275;Harold Hamm;$9.32B;+$74.1M;+$4.22B ;United States;Energy;633 Seltice Way;Mullan;83846;Minnesota;1969924152405;a7989183j
276;Iskandar Makhmudov;$9.31B;+$250M;+$1.46B ;Russia;Commodities;Tereshkovoy Ul., bld. 38/А, appt. 78;Lipetsk;;Lipetskaya oblast;1945994739257;v3477698c
277;John Malone;$9.29B;-$46.3M;+$1.22B ;United States;Media & Telecom;3574 Birch Street;Indianapolis;46250;Ohio;1965222317188;n1525175b
278;Hansjoerg Wyss;$9.27B;-$35.6M;+$347M ;Switzerland;Health Care;Via Verbano 26;Urtenen;3322;;1957662424530;l8874860x
279;Rupert Murdoch;$9.20B;+$19.7M;+$1.75B ;United States;Media & Telecom;2148 Masonic Hill Road;Little Rock;72212;Indiana;1945454455092;t7840950c
280;James Pattison;$9.18B;-$33.6M;+$1.59B ;Canada;Media & Telecom;348 184th Street;Edmonton;T5J 2R4;Alberta;1998480014025;c8151992c
281;Jude Reyes;$9.18B;-$138M;+$1.24B ;United States;Consumer;3525 Flanigan Oaks Drive;Temple Hills;20031;South Carolina;1982915264970;z7209847w
282;Chris Reyes;$9.18B;-$138M;+$1.24B ;United States;Consumer;1468 Frosty Lane;Utica;13502;Colorado;2004260883812;o8094586x
283;Tatyana Bakalchuk;$9.14B;+$136M;+$49.9M ;Russia;Technology;G. Likino-Dulevo Ul.1-Go Maya, bld. 26/А , appt. 227;Orekhovo-zuevo;;Moskovskaya oblast;1961173959874;y4169877e
284;Gabe Newell;$9.06B;+$100M;-$114M ;United States;Technology;3295 B Street;Hortonville;54944;Virginia;1957865011327;p3670668g
285;Andrew Currie;$8.97B;+$23.6M;+$588M ;United Kingdom;Industrial;28 Bishopthorpe ;Pennsylvania; SN14 9QW;Wisconsin;1965537569591;b6344971m
286;Johann Rupert & Family;$8.94B;-$115M;+$924M ;South Africa;Diversified;2010 Cheriton Dr;Malvern;4147;Gauteng;1953709705785;n6324964e
287;Silvio Berlusconi;$8.94B;-$105M;+$856M ;Italy;Media & Telecom; Via Rosmini 109; Casalsottano;84040; Salerno;2008934960557;d2956460c
288;John Reece;$8.91B;+$23.4M;+$584M ;United Kingdom;Industrial;54 Maidstone Roa;Wepham; BN18 7UT;South Carolina;1947807329312;z9362917y
289;Cheng Xue;$8.90B;+$442M;-$1.48B ;China;Food & Beverage;Si Chuan Sheng Ren Shou Xian Ling Zhou Jian Li You Xian Ze Ren Gong Si;Meishan - Renshoucounty;;Sichuan;1981201968364;l7362966f
290;Willi Liebherr;$8.86B;-$193M;+$963M ;Germany;Industrial;Paderborner Strasse 51;Unterdießen;86944;Free State of Bavaria;1999237017993;v7065395t
291;Isolde Liebherr;$8.86B;-$193M;+$963M ;Germany;Industrial;Buelowstrasse 93;vineyards;87669;Free State of Bavaria;2005858267538;z3990082u
292;John Albert Sobrato;$8.84B;$0;$0 ;United States;Real-Estate;4109 Hillside Street;Mesa;85225;Missouri;1987118149065;u4192372f
293;Marc Benioff;$8.83B;+$27.7M;-$93.0M ;United States;Technology;3586 Wiseman Street;Knoxville;37919;Missouri;1969913596866;o4142711y
294;Denis Sverdlov;$8.80B;-$130M;+$4.17B ;Russia;Technology;Voinov-Internatsionalistov, bld. 45, appt. 60;Cheboksary;;Respublika CHuvashiya;1996270114640;t9421879h
295;Li Zhenguo;$8.80B;-$147M;+$496M ;China;Energy;Zhu Hai Hong Shan Piao Zheng Yin Shua You Xian Gong Si;Zhuhai - Jinwan District;;Guangdong;1982470833199;n3508309v
296;Sandra Ortega Mera;$8.74B;-$134M;+$1.02B ;Spain;Retail;Pza. Fuensanta 57;O Bolo;32373;Ourense;1975066204386;s9012516j
297;Hui Wing Mau;$8.74B;-$193M;-$768M ;Hong Kong;Real-Estate;Sunshine Plaza Wan Chai;Wan Chai District;;Hong Kong;1978903346606;v1849453i
298;Liu Jincheng;$8.71B;-$292M;+$621M ;China;Industrial;Guang Dong Sheng Xia Tang Xi Zheng Min Lu 79hao 504;Guangzhou - Baiyun District;;Guangdong;1959267480059;j1637146l
299;Theo Albrecht Jr.;$8.71B;-$193M;+$53.7M ;Germany;Retail;Kastanienallee 46;Gudendorf;25722;Schleswig-Holstein;1970536805384;p5603791n
300;Dennis Washington;$8.69B;-$49.8M;+$1.56B ;United States;Industrial;2976 Passaic Street;Rodessa;71069;California;1948208655732;p9078198m
301;Stephen Ross;$8.69B;-$128M;+$327M ;United States;Real-Estate;626 Airplane Avenue;Hartford;6182;Texas;1983524618111;q1632765s
302;Lin Bin;$8.66B;-$189M;-$3.16B ;United States;Technology;3102 Rainbow Road;Los Angeles;90017;Connecticut;1974425971846;k4779733p
303;Mohammed Al Amoudi;$8.66B;+$28.7M;+$1.09B ;Saudi Arabia;Energy;Khamis Mushait;Asir;;Asir;2008874298082;m7899841b
304;Robert Smith;$8.65B;$0;+$1.60B ;United States;Finance;1425 Metz Lane;Cambridge;2142;Ohio;1980053742152;n3999977s
305;Rocco Commisso;$8.64B;-$64.4M;-$1.30B ;United States;Media & Telecom;4139 Hart Country Lane;Woodbury;30293;Arizona;1974002060077;h7512184y
306;Benu Bangur;$8.61B;+$81.0M;+$1.05B ;India;Commodities;968, Japani Bazar, Ulhasnagar;Mumbai;421002;  Maharashtra;1993846438848;k9373711a
307;German Larrea;$8.61B;+$19.2M;+$2.30B ;Mexico;Commodities;COLON 109 OTE, ZAMORA DE HIDALGO CENTRO, 59600; Michoacan;59600;Zamora;1990285104314;t3557449q
308;Anthony von Mandl;$8.60B;-$102M;+$2.60B ;Canada;Consumer; 975 Toy Avenue;  Port Mcneill; V0N 2R0; British Columbia;1975849075221;e3390051c
309;Shigenobu Nagamori;$8.60B;-$273M;-$986M ;Japan;Industrial; 474-1273, Haijimacho;Akishima-shi;; Tokyo;1982665118633;a1235119o
310;Lu Zhongfang;$8.60B;+$563M;-$3.19B ;China;Services;Hang Du Lu 80hao （ Sheng Chan Zhi Zao Bu ）;City Area;;Shanghai;1977985800784;d6109968m
311;Jerry Jones;$8.56B;-$45.8M;+$2.17B ;United States;Entertainment;583 Mapleview Drive;Tampa;33619;New York;1985050051527;b3406301j
312;Pei Zhenhua;$8.48B;-$58.9M;+$624M ;China;Industrial;Lu Jiang Xi Jie 99hao Qun Xing Yuan 117dong 308;Guangzhoushi;;Guangdong;2004729073940;p3741895s
313;Sun Hongbin;$8.45B;-$147M;+$648M ;United States;Real-Estate;756 Maple Street;Tustin;92680;Michigan;1988995169958;g4567060f
314;Ugur Sahin;$8.45B;-$185M;+$4.98B ;Germany;Health Care;Guentzelstrasse 26;Lissendorf;54587;Rhineland-Palatinaten;1996047370188;f7008793p
315;Joseph Lau;$8.39B;-$68.9M;+$742M ;Hong Kong;Real-Estate;Superluck Ind Centre;Tsuen Wan;;Hong Kong;1993552126287;s2102624n
316;Xu Shihui;$8.32B;-$78.2M;+$366M ;China;Food & Beverage;Cheng Shan Lu 2399long 48hao 201;City Area;;Shanghai;1967970144743;d6569882m
317;Li Ge;$8.30B;+$101M;+$507M ;United States;Health Care;3200 Cityview Drive;Allentown;18101;Wyoming;1962792182502;o9099537g
318;Ned Johnson IV;$8.29B;-$188M;+$967M ;United States;Finance;21 Leisure Lane;San Luis Obispo;93401;Maryland;1993257512476;z7546016f
319;Elizabeth Johnson;$8.29B;-$187M;+$964M ;United States;Finance;2024 Eagle Lane;Mcgregor;55760;Texas;1950068793508;a7835266j
320;Alexander Otto;$8.28B;-$48.4M;+$286M ;Germany;Real-Estate;Mohrenstrasse 67;Winterlingen;72474;Baden-Württemberg;1979639096559;e5496757c
321;Ruan Xueping;$8.28B;+$34.8M;-$265M ;China;Industrial;Dong Ba Hong Song Yuan Bei Jing Shi Di Shi Liu Zhong Xue;Beijing;;Beijing;1988338126000;p8244537m
322;Ruan Liping;$8.28B;+$9.78M;-$290M ;China;Industrial;Zhong Xin Cheng Qing Lin Zhong Lu 211hao Shui Wu Da Lou 708shi;Shenchou - Longgang District;;Guangdong;1994560637007;m3244178s
323;Daniel Dines;$8.27B;+$1.03B;+$3.56B ;Romania;Technology;Strada Floare de Colt 1, Borsa;Maramures;;Maramures;1963360859864;b4570638l
324;Carl Bennet;$8.25B;-$204M;+$1.39B ;Sweden;Finance; Östantorp Vinö 1; Gemla; 360 32;;1974847599234;v6662187g
325;Izzy Englander;$8.25B;-$28.3M;+$1.48B ;United States;Finance;485 Robinson Lane;Columbus;43215;Minnesota;1961969031174;y2424024m
326;Magdalena Martullo;$8.24B;-$192M;-$270M ;Switzerland;Industrial;Obere Haltenstrasse 53;Lützelflüh;3432;;1941276847103;s5931651k
327;Laurent Dassault;$8.19B;-$47.3M;+$550M ;France;Diversified;5 rue du Gue Jacquet;Chatou;78400;Île-de-France;1957082581317;n6934171q
328;Marie-Helene Habert-Dassault;$8.19B;-$47.4M;+$550M ;France;Diversified;85 rue Nationale;Paris;75007;Île-de-France;1951447049533;f5239188k
329;Thierry Dassault;$8.19B;-$47.3M;+$550M ;France;Diversified;76 rue Gontier-Patin;Agen;47000;Aquitaine;2009633230722;f1736242k
330;Ralph Lauren;$8.17B;-$89.8M;+$812M ;United States;Consumer;952 Birch Street;Indianapolis;46202;Minnesota;1941618810244;j1465395w
331;Richard Kinder;$8.16B;-$96.9M;+$1.35B ;United States;Energy;1883 Charter Street;Lugoff;29078;Kentucky;1963759081876;v1716279z
332;Kei Hoi Pang;$8.12B;-$47.0M;-$283M ;China;Real-Estate;Zheng Zhou Shi Chang Xing Lu 19hao;Zhengzhou - Huiji District;;Henan;1986498050401;p1802061v
333;Juan Beckmann Vidal & Family;$8.11B;-$62.5M;-$319M ;Mexico;Food & Beverage;AV MARIANO ABASOLO NO. 899, PROHOGAR, 21240; Baja California;21240;Mexicali;1979458333925;c2575435v
334;Shahid Khan;$8.09B;-$40.0M;-$102M ;United States;Consumer;4747 Clay Lick Road;Broomfield;80020;New Jersey;1956646721631;o4368992t
335;Yu Renrong;$8.01B;+$109M;+$1.28B ;China;Technology;Zhuan Shu Jie 50hao Jiu Du Fan Dian Xing Zheng Bu;Yibin - Cuiping District;;Sichuan;1960881609843;b7609074t
336;Mat Ishbia;$8.00B;+$78.9M;-$3.35B ;United States;Finance;1310 Jehovah Drive;Beltsville;20705;Ohio;1946207382891;k6574293p
337;Rahel Blocher;$7.99B;-$167M;-$295M ;Switzerland;Industrial;Erlenweg 108;Bern;3041;;1942093174259;d6714300l
338;Ludwig Merckle;$7.99B;-$108M;+$584M ;Germany;Industrial;Friedrichstrasse 33;Düsseldorf Kalkum;40489;Nordrhein-Westfalen;2002406741466;b7610679y
339;Chen Jianhua;$7.98B;-$441M;-$1.30B ;China;Industrial;Dong Nan Cheng Jiao Li Jing Hao Ting 2-0802shi;Xian - Beilin District;;Shaanxi;1988096365699;c5464254w
340;Frank Lowy;$7.93B;-$75.0M;+$525M ;Australia;Real-Estate;4 Old Gayndah Road;Mount Steadman;4650;Queensland;2008987288745;f4451147r
341;Nicky Oppenheimer;$7.83B;-$25.0M;+$675M ;South Africa;Diversified;244 Doreen St;Rustentburg;340;North West;1973281558971;e7807023x
342;David Thomson;$7.81B;-$34.8M;+$1.00B ;Canada;Media & Telecom;2031 9th Avenue;Woodstock;N4S 6J6;Ontario;1978202113571;y4475927x
343;Taylor Thomson;$7.81B;-$36.7M;+$999M ;Canada;Media & Telecom;786 Landon Street;Verner;P0H 2M0;Ontario;1967277157286;l1911645m
344;Peter Thomson;$7.81B;-$36.7M;+$999M ;Canada;Media & Telecom;2029 Hastings Street;Vancouver;V6C 1B4;British Columbia;1962559224263;h9530035z
345;Bob Rich;$7.81B;-$85.5M;+$720M ;United States;Food & Beverage;1247 Blane Street;Saint Louis;63146;Iowa;2008486202101;q9290713t
346;Leonid Fedun;$7.80B;-$119M;+$1.13B ;Russia;Energy;Ostrovskogo, bld. 30, appt. 90;Surgut;;KHanty-Mansiyskiy AO;1953560790836;w5677768e
347;Nusli Wadia;$7.76B;+$57.7M;-$128M ;India;Diversified;2, Khushboo Corner, Alkapuri;Vadodara;390007;  Gujarat;1989676093073;j2573322t
348;Geoffrey Kwok;$7.73B;-$99.2M;+$1.02B ;Hong Kong;Real-Estate;Pccw Tower Quarry Bay;Eastern District;;Hong Kong;1998796385855;v6323286r
349;Finn Rausing;$7.66B;-$51.6M;-$35.0M ;Sweden;Services; Esplanadgatan 22; Dala-husby; 776 03;;1973376397988;y8944348b
350;Kirsten Rausing;$7.66B;-$51.6M;-$35.0M ;Sweden;Services; Karlsängen 66; Stora Vika; 140 42;;1966777664178;m5022344r
351;George Soros;$7.60B;$0;$0 ;United States;Finance;2502 Briarwood Road;Springfield;65804;Pennsylvania;1985578232304;w8364254o
352;Steven Spielberg;$7.58B;-$75.0M;+$425M ;United States;Entertainment;2373 Glendale Avenue;Los Angeles;90017;Wisconsin;2004071057022;y6871783a
353;Charles Cadogan;$7.57B;$0;+$510M ;United Kingdom;Real-Estate;43 Iffley Road;Bristol; BS1 9NR;California;1945487866518;q4842106i
354;Liu Hanyuan;$7.52B;-$48.4M;+$107M ;China;Industrial;Tai Yuan Shi Shang Guan Xiang 5hao Sheng Gong An Ting Su She 7hao Lou 4hao;Taiyuan - Yingze District;;Shanxi;2009745680119;l5286670j
355;Liz Mohn;$7.52B;-$113M;+$763M ;Germany;Media & Telecom;Kurfuerstendamm 78;Heilbronn Heilbronn;74074; Baden-Württemberg;1943770129572;a6939109r
356;Ronda Stryker;$7.50B;-$104M;+$276M ;United States;Health Care;2259 Lynn Ogden Lane;Beaumont;77701;New Jersey;1940739005624;t2601194d
357;Yu Yong;$7.49B;-$330M;+$2.08B ;China;Finance;Xin A-14-4;City Area - Shapingba District;;Chongqing;1943301542740;o1508263n
358;Chase Coleman;$7.47B;-$13.8M;+$2.11B ;United States;Finance;4552 Red Bud Lane;Hartford;6182;Wisconsin;1977837978067;w3814782q
359;Andy Bechtolsheim;$7.45B;-$18.3M;+$582M ;Germany;Technology;Kirchenallee 64;Regen;94204; Freistaat Bayern;1976246809683;m4124741u
360;Hong Ra-hee;$7.44B;-$276M;+$414M ;Korea;Diversified;50-6, Hanmaeumapateu, Beob 2(i)-dong;Daedeok-gu;;Daejeon;1961423381002;g2178591a
361;Tammy Gustavson;$7.43B;-$46.0M;+$944M ;United States;Services;520 Norma Avenue;Dayton;45402;North Carolina;1974739214262;t1405263g
362;Lin Jianhua;$7.42B;-$156M;+$167M ;China;Technology;Tong Pu Lu 13hao Yi Zhou Qin Xing;Hangzhou - Xihu District;;Zhejiang;1959847083181;y4231823e
363;Martin Viessmann & Family;$7.42B;-$138M;+$427M ;Germany;Industrial;Amsinckstrasse 90;Cunewalde;2731; Freistaat Sachsen;1990612522237;x8140933i
364;Frederik Paulsen;$7.41B;+$80.6M;+$2.35B ;Sweden;Health Care; Idvägen 19; Norrhult; 360 71;;1982071203847;t7448800x
365;Laurence Graff;$7.40B;-$158M;+$1.20B ;United Kingdom;Consumer;65 Hexham Road;Isley Walton;  DE74 8EH;New York;1988166454793;l5240348o
366;Takahisa Takahara;$7.39B;-$191M;-$1.70B ;Japan;Consumer; 416-1048, Aikawacho;Tahara-shi;; Aichi;1998508982052;j2264707e
367;John Grayken;$7.36B;-$121M;-$852M ;Ireland;Finance;11A Ashbourne Town Centre Ashbourne Co;Ashbourne;;County Meath;1957432670369;c9740764o
368;Gang Ye;$7.29B;+$207M;+$990M ;Singapore;Technology; Vbox, 919191;Singapore;48622;;2006119676713;r4470346k
369;Samuel Yin;$7.28B;+$159M;+$2.88B ;Taiwan;Diversified;Lane 12,Wucyuan 7Th St,West District;West District;;Taichung;2001965636743;i8232938s
370;Wang Laisheng;$7.27B;-$15.6M;-$3.22B ;China;Industrial;An Ding Men Wai Da Jie 59-2;City Area - Dongcheng District;;Beijing;1989926510005;p8628507o
371;Sri Prakash Lohia;$7.26B;-$98.2M;+$365M ;Indonesia;Industrial; Jl Nangka VII 1 RT 011/01;Dki Jakarta;11970;Jakarta;1944648117852;v1057317h
372;Axel Oberwelland;$7.24B;-$63.3M;+$1.41B ;Germany;Food & Beverage;Flotowstr. 24;Bernburg;6400; Sachsen-Anhalt;1953466027719;f5784232a
373;Mohamed Al Jaber;$7.20B;+$1.46M;+$8.55M ;Saudi Arabia;Retail;Buraydah;Qassim;;Qassim;1971718557952;a3201906j
374;Gwendolyn Sontheim Meyer;$7.17B;-$25.0M;+$1.13B ;United States;Commodities;2055 Terry Lane;San Manuel;85631;Louisiana;1952555792501;w4869893x
375;Pauline Keinath;$7.17B;-$25.0M;+$1.13B ;United States;Commodities;1135 Bell Street;New York;10011;Indiana;1950922206917;s2265128d
376;Tom Gores;$7.17B;-$25.0M;+$2.02B ;United States;Finance;4526 Browning Lane;Royal Oak;48073;Oklahoma;1986070944902;r6308237b
377;Hiroshi Mikitani;$7.13B;-$237M;+$1.20B ;Japan;Retail; 206-1117, Ichijoji Saikatacho, Sakyo-ku-shi;Sakyo-ku Kyoto-shi;; Kyoto;2008718585381;e6187630l
378;Jian Jun;$7.13B;+$243M;+$2.46B ;China;Consumer;Ta Zhi Dong Lu Cheng Gong Fang Chan;Bayinguolengmengguautonomous prefecture;;Xinjiang Uygur Autonomous Region;2006809321282;g6927236x
379;Teh Hong Piow;$7.11B;-$14.3M;+$231M ;Malaysia;Finance;No. 7 Jln 13/6 Seksyen 13;Petaling Jaya;46200;Selangor;2004935956560;g3510723b
380;Terry Pegula;$7.10B;-$25.0M;+$800M ;United States;Energy;1016 Ritter Street;Burns;82053;Washington;1949113867623;e1423281s
381;Alexey Kuzmichev;$7.08B;-$69.8M;-$333M ;Russia;Diversified; Akademgorodok Ul., bld. 21, appt. 155; Krasnoyarsk;; Krasnoyarskiy kray;1956439284774;k8137928r
382;John Sall;$7.08B;-$137M;+$553M ;United States;Technology;2330 Doe Meadow Drive;Germantown;20767;California;2005569334288;z3279226z
383;Antti Herlin;$7.03B;-$96.0M;+$195M ;Finland;Industrial;Linnoitustie 39;Nokia;37120;Pirkanmaa;1981443188765;c8235592i
384;Chris Hohn;$7.02B;-$46.6M;+$3.02B ;United Kingdom;Finance;57 Seafield Plac;Forres;  IV36 7TZ;Texas;1974931767763;v4158310b
385;David Shaw;$7.02B;-$52.1M;+$1.14B ;United States;Finance;3128 Crestview Terrace;Kingsbury;78638;Maryland;2006625967784;z9741066p
386;Nassef Sawiris;$7.01B;-$70.0M;+$411M ;Egypt;Industrial;57 El-Khalifa El-Maamoun St., inside Centre B.B;Heliopolis;;Cairo;2005848819272;v1417856m
387;Alain Merieux;$7.01B;-$34.0M;-$1.12B ;France;Health Care;48 Rue St Ferréol;Meudon-la-forÊt;92360;Île-de-France;2003085453158;i5953412r
388;Natie Kirsh;$7.01B;-$5.47M;+$548M ;South Africa;Food & Beverage;278 Devenish St;Acornhoek;1361;Limpopo;1998159031674;b3992799b
389;Kenneth Dart;$6.98B;-$148M;+$659M ;Cayman Islands;Finance;Grand Cayman KY1-1204, 69 Barnes Dr., #27;Grand Cayman;KY1-1204;George Town;1945794107576;k7964738f
390;Horst Pudwill;$6.97B;-$173M;+$1.64B ;Hong Kong;Consumer;Luen Fat Ind Second Bldg Kwai Chung;Kwai Tsing District;;Hong Kong;1947525000085;c3333831s
391;Shari Arison;$6.97B;-$115M;+$419M ;Israel;Diversified;38 Sharet;Ramat Gan;;;1986378728172;j5699698h
392;Nancy Laurie;$6.97B;-$54.0M;-$10.5M ;United States;Retail;1785 Oakridge Farm Lane;Vergas;56587;New York;1942781367338;p8347221v
393;Wang Yusuo;$6.96B;+$99.0M;+$2.20B ;China;Energy;Gao Xin Jie 6hao Hua Xin Ruan Jian Da Xia;Dalianshi;;Liaoning;1987939714251;q3275425d
394;Tan Kim Choo;$6.95B;-$131M;+$2.56B ;Singapore;Real-Estate; 46 PENJURU LANE M1-00;Singapore;368239;;1953736451389;o7642366x
395;Stef Wertheimer;$6.88B;-$50.0M;+$350M ;Israel;Diversified;22 Buber Martin;Haifa;;;1955911945593;x5483384r
396;Pankaj Patel;$6.86B;+$75.5M;+$1.58B ;India;Health Care;Belbaug Shopping Centre, Belbaug Shopping Centre, Opp. Railway Station;Vadodara;390002;  Gujarat;1955743061886;q7893427p
397;Kjeld Kirk Kristiansen;$6.83B;-$95.5M;-$280M ;Denmark;Consumer;Brogade 25;Eskilstrup;4863; Region Sjælland;1996005419961;u6789025j
398;Ray Hunt;$6.83B;-$93.3M;+$2.12B ;United States;Energy;2326 Sardis Station;Golden Valley;55427;Indiana;1990514527191;p8969626r
399;Margaretta Taylor;$6.81B;-$65.5M;+$696M ;United States;Media & Telecom;4839 Snyder Avenue;Auxier;41602;California;1941568780111;q7120683h
400;James Cox Chambers;$6.81B;-$65.5M;+$696M ;United States;Media & Telecom;4455 Caynor Circle;Bedminster;7921;Washington;1989088573060;e2517965u
401;Katharine Rayner;$6.81B;-$65.5M;+$696M ;United States;Media & Telecom;1879 Upland Avenue;Caledonia;43314;Washington;1943581020859;s3804199d
402;Fredrik Lundberg;$6.78B;-$159M;+$386M ;Sweden;Real-Estate;  Luddingsbo Mekanikusv 50;  Johanneshov;  121 90;;1982661309104;l9354465w
403;Chu Mang Yee;$6.78B;+$67.2M;+$2.44B ;China;Real-Estate;Yuan Shan Nan Lu 1hao Lao Lian Tong Gong Si 4lou Xi;Laiwu - City Area;;Shandong;2000868460551;f4535385m
405;Ernest Garcia III;$6.73B;-$84.1M;-$9.85M ;United States;Consumer;4103 Goldleaf Lane;Muscatine;52761;Texas;2008046125068;n8470478x
406;Bertil Hult;$6.72B;-$158M;+$1.05B ;Sweden;Diversified;Bodbysund 24;Skellefteå;931 17;;1979927634720;w8995770k
407;Eric Smidt;$6.71B;-$278M;+$1.12B ;United States;Retail;4142 Tipple Road;Philadelphia;19146;Mississippi;1979526623729;e5860695j
408;Vincent Bollore;$6.69B;+$2.24M;+$1.49B ;France;Diversified;30 rue Saint Germain;Gap;5000;Provence-Alpes-Côte d'Azur;1955614055898;t1885030l
409;Joe Lewis;$6.68B;-$53.3M;+$187M ;United Kingdom;Diversified;86 Victoria Road;Lintlaw;  TD11 1UF;Vermont;1968500507610;l8230808y
410;Josh Harris;$6.67B;-$17.7M;+$563M ;United States;Finance;3215 Highland Drive;Green Bay;54303;Ohio;1955121279082;i4581190p
411;J K Irving;$6.67B;+$3.96M;+$419M ;Canada;Commodities;817 Riedel Street;Fort Mcmurray;T9H 3J9;Alberta;1980130748080;i2299377h
412;Ronald McAulay;$6.66B;-$56.0M;+$346M ;Hong Kong;Energy;5 Mui Hing St;Happy Valley;;Hong Kong;1975824126320;q2993014h
413;Jean-Michel Besnier;$6.64B;-$59.6M;+$359M ;France;Food & Beverage;98 Rue de Strasbourg;Clichy-sous-bois;93390;Île-de-France;1949210160034;a6181444g
414;Randa Williams;$6.63B;-$32.4M;+$778M ;United States;Energy;4991 Ingram Street;Gladstone;7934;Texas;1970319162937;o4336692p
415;Dannine Avara;$6.63B;-$32.4M;+$778M ;United States;Energy;1365 Hartland Avenue;Fond Du Lac;54935;California;1940394449400;v6995365i
416;Scott Duncan;$6.63B;-$32.4M;+$778M ;United States;Energy;3967 Stratford Court;Cary;27513;Florida;1975138856251;y4424588h
417;Milane Frantz;$6.63B;-$32.4M;+$778M ;United States;Energy;3603 Shadowmar Drive;Metairie;70001;Montana;1945619058502;d3077708o
418;Sofie Kirk Kristiansen;$6.63B;-$70.5M;-$305M ;Denmark;Consumer;Præstegade 45;Nørre Asmindrup;4572; Region Sjælland;1979063690469;x5156205x
419;Agnete Kirk Thinggaard;$6.63B;-$70.5M;-$305M ;Denmark;Consumer;Dosseringen 90;Storvorde;9280; Region Nordjylland;1974674593181;n3217859w
420;Thomas Kirk Kristiansen;$6.63B;-$70.5M;-$305M ;Denmark;Consumer;Klintevej 33;Frederiksberg C;1966; Region Sjælland;1961981416133;x6081728x
421;Wang Laichun;$6.60B;-$15.5M;-$3.24B ;China;Industrial;Yuan Guang Bei Lu Jia Ming Da Xia 801;Zhangzhou - Xiangcheng District;;Fujian;1997087114137;f2300286r
422;Xavier Niel;$6.60B;+$57.8M;-$713M ;France;Technology;29 rue Marguerite;Villiers-le-bel;95400;Île-de-France;1959255688642;r4160920r
423;Lynn Schusterman;$6.58B;-$26.3M;+$381M ;United States;Energy;3126 Pearcy Avenue;Indianapolis;46202;Louisiana;1990265451362;m2063454d
424;Lai Meisong;$6.58B;-$79.5M;+$402M ;China;Services;Wei Fang Lu 357hao Xin Zhu Yuan Zhong Xue;Shanghai;;Shanghai;1941171016138;y9924097a
425;Tom Morris;$6.55B;-$123M;+$955M ;United Kingdom;Retail;10 Sea Road;Lamphey;  SA71 3QT;Utah;1977460248541;h3235406h
426;Yasumitsu Shigeta;$6.55B;-$107M;-$545M ;Japan;Media & Telecom; 417-1104, Nishibiwajimacho Benten;Kiyosu-shi;; Aichi;1950723980466;s6860339s
427;K P Singh;$6.54B;-$6.28M;+$874M ;India;Real-Estate;1-2-3, Vyapar Bhavan, Ahmedabad Street, Masjid Bunder(e);Mumbai;400009;  Maharashtra;1972944438434;y5838372h
428;Rahul Bajaj;$6.53B;-$21.8M;+$966M ;India;Diversified;B-1, Near St Carmel Schoo, Silver Croft, Off Marve Road, Malad (west);Mumbai;400062;  Maharashtra;1986146559632;v9280888x
429;Simon Reuben;$6.50B;-$50.0M;+$150M ;United Kingdom;Diversified;7 Iffley Road;Brislington;  BS4 6TQ;Virginia;1958988149882;h2466828j
430;David Reuben;$6.50B;-$25.0M;+$150M ;United Kingdom;Diversified;44 Essex Rd;Taunton;  TA1 3EE;Alabama;1959954048024;c3185189o
431;Leaf Hua Li;$6.46B;+$413M;+$4.15B ;China;Technology;Jiang Da Lu Te 1hao Xiang Ti Mei Jing 13-4-104;Wuhan;;Hubei;2007190195340;e5605574w
432;George Kaiser;$6.42B;-$31.8M;+$450M ;United States;Energy;4199 Hornor Avenue;Bartlesville;74003;California;1952460185714;o3850057g
433;Bom Kim;$6.39B;-$143M;+$5.49B ;United States;Technology;1532 Goodwin Avenue;Spokane;99205;California;2008429907127;e9827975x
434;Andrey Guryev;$6.38B;+$42.6M;+$1.26B ;Russia;Industrial; 206 Kvartal, bld. 5, appt. 13; Angarsk;; Irkutskaya oblast;2009373762219;i2232352r
435;Chung Mong-Koo;$6.37B;-$58.7M;+$688M ;Korea;Industrial;959-2, Bongdeog 2(i)-dong;Nam-gu;;Daegu;1951925522858;s5717867h
436;Jean-Pierre Cayard;$6.35B;-$108M;+$588M ;France;Food & Beverage;66 Rue Frédéric Chopin;Vernon;27200;Haute-Normandie;1975765971152;k3811416f
437;Peter Thiel;$6.31B;+$237M;-$330M ;United States;Finance;1705 Roosevelt Wilson Lane;Santa Fe Springs;90670;Montana;1966469359588;l2143210z
438;Jane Lauder;$6.30B;-$71.4M;+$596M ;United States;Consumer;4826 Harron Drive;Columbia;21046;California;1999217931172;w4102628i
439;Udo Tschira;$6.29B;-$134M;+$303M ;Germany;Technology;Budapester Straße 30;Lichtenfels;96215; Freistaat Bayern;1947797145388;j2129675f
440;Harald Tschira;$6.29B;-$134M;+$303M ;Germany;Technology;Ansbacher Strasse 14;Schauren;55758; Rheinland-Pfalz;1945054394046;u6018585u
441;Lv Xiang-yang;$6.26B;-$61.9M;+$1.87B ;China;Consumer;Jiang Xi Jing De Zhen Shu Guang Lu Tie Lu You Er Yuan;Jingdetownshi;;Jiangxi;1998440744211;w4539673f
442;Bubba Cathy;$6.25B;-$20.2M;+$260M ;United States;Food & Beverage;2276 Elm Drive;New York;10023;Minnesota;1989221089237;i9298784y
443;Ivan Glasenberg;$6.24B;-$54.2M;+$1.81B ;Australia;Commodities;97 Quintin Street;Wamuran Basin;4512;Queensland;1954178108646;n4259357m
444;Dan Cathy;$6.24B;-$23.6M;+$256M ;United States;Food & Beverage;2808 Patterson Street;Princeton;47670;Florida;1987951587095;l8125202w
445;Andre Hoffmann;$6.23B;-$94.5M;+$304M ;Switzerland;Health Care;Langwiesstrasse 12;Wengen;3823;;1969153469306;h1302859e
446;Philip Ng;$6.23B;-$71.1M;+$1.29B ;Singapore;Real-Estate; 30 RAFFLES PLACE 23-00 CALTEX HOUSE;Singapore;399849;;2009505741441;u2542415r
447;Petr Aven;$6.20B;-$43.0M;+$83.4M ;Russia;Diversified; Gidrostroiteley, bld. 39, appt. 9; Krasnodar;; Krasnodarskiy kray;1992326926862;j6842172h
448;Mark Shoen;$6.16B;-$138M;+$1.35B ;United States;Services;4129 Beech Street;Concord;94520;Michigan;1988913071605;n1165818n
449;Robert Ng;$6.16B;-$69.3M;+$1.28B ;Singapore;Real-Estate; 605, MacPherson Rd #01-15, Citimac Ind Complex;Singapore;79903;;2005986186242;q1211481a
450;Tsai Eng-Meng;$6.15B;-$43.5M;+$194M ;Taiwan;Food & Beverage;ALLEY 10, LANE 261, CHIN TRUE RD.;  Nanliu Vill.;; TAICHUNG;2005835938042;p6706912i
451;Isaac Perlmutter;$6.14B;-$67.6M;+$38.7M ;United States;Entertainment;683 Boone Crockett Lane;Seattle;98119;North Carolina;1941184875329;s5146743s
452;Linda Campbell;$6.14B;-$33.9M;+$785M ;Canada;Media & Telecom;2029 Hastings Stre; Vancouver;V6C 1B4;British Columbia;2004145880542;r3146040g
453;Gaye Farncombe;$6.14B;-$8.88M;+$785M ;Canada;Media & Telecom; 817 Riedel Street;  Fort Mcmurray; T9H 3J9; Alberta;1966172166259;f3531155s
454;Michael Herz & Family;$6.14B;-$17.5M;+$331M ;Germany;Consumer;Oldesloer Strasse 85;Christes;98547; Freistaat Thüring;1990950926019;i3826396f
455;Olav Thon;$6.13B;-$59.0M;+$300M ;Norway;Real-Estate;Tors vei 198;Kristiansund;6511;;1964864024614;o8251296t
456;Barry Lam;$6.13B;-$165M;+$626M ;Taiwan;Technology;No. 12, Lane 696, Huacheng Rd.;  Taipei Hsien;; Hsinchuang;1967044543460;x9376425f
457;Robert Rowling;$6.12B;-$107M;-$19.7M ;United States;Energy;1288 Elliot Avenue;Seattle;98101;West Virginia;1991296803152;q1533593n
458;Barry Diller;$6.12B;+$69.7M;+$568M ;United States;Technology;4355 Whispering Pines Circ;Allen;75002;Utah;1989885531431;i7735794w
459;Wolfgang Herz & Family;$6.12B;-$17.5M;+$313M ;Germany;Consumer;Luebeckertordamm 69;Abenberg;91181;  Freistaat Bayern;1957390122072;y8039808m
460;Leonard Stern;$6.10B;-$25.0M;+$604M ;United States;Real-Estate;2377 Lena Lane;Bolton;39041;Washington;1980036838334;d1720612r
461;Wang Wenjing;$6.10B;+$2.56M;-$1.77B ;China;Technology;Sheng Li Xin Cun 110hao 102shi;Wuxi - Binhu District;;Jiangsu;2002377033112;p8334932p
462;Manuel Villar;$6.06B;-$1.73M;-$609M ;Philippines;Diversified;Km. 30 McArthur Highway, Burol First, Balagtas;Bulacan;;Bulacan;1988505651086;c9031408y
463;Charles Butt & Family;$6.06B;-$223M;+$731M ;United States;Retail;4118 Langtown Road;Margaretta (township);44824;Ohio;1947064066633;f4671726j
464;Anthony Wood;$6.04B;+$220M;-$502M ;United States;Technology;930 Sardis Sta;Grand Prairie;75051;Washington;1948310611520;t8734034k
465;Peter-Alexander Wacker & Family;$6.04B;-$43.7M;+$312M ;Germany;Industrial;Mühlenstrasse 33;Veitshöchheim;97205;  Freistaat Bayern;1986647449888;m3673847y
466;Andreas Halvorsen;$6.01B;-$14.7M;+$1.94B ;Norway;Finance;Lunnevegen 118;Bybrua;2822;;2006148290806;u2005639t
467;Terry Gou;$5.99B;-$160M;-$615M ;Taiwan;Industrial;5F, No. 360, Sec. 6;  Chung Shan N. Rd.;;Taipei;1990073615226;c1056582c
468;Robert Kraft;$5.99B;+$56.3k;+$973M ;United States;Entertainment;2808 Wilson Street;San Diego;92101;California;1966895802997;w2886030s
469;Ann Kroenke;$5.97B;-$50.7M;-$134M ;United States;Retail;2660 Tyler Avenue;Hialeah;33012;California;1978147251207;h3836276z
470;Henry Samueli;$5.96B;+$38.4M;+$71.5M ;United States;Technology;4036 Richison Drive;Reedpoint;59069;Texas;1977857507993;s6802900x
471;Frits Goldschmeding;$5.96B;-$118M;+$698M ;Netherlands;Retail;Edisonweg 96;Gorinchem;4207 HE;Zuid-Holland;1944149370269;v8041636k
472;Arthur Irving;$5.95B;-$98.8M;-$1.58B ;Canada;Energy;3542 Thatcher Avenue;  Montreal; H3C 5K4; Quebec;1970300433235;v9272832v
473;Andrey Kozitsyn;$5.93B;+$20.6M;+$1.72B ;Russia;Industrial; Asafeva Ul., bld. 4/21, appt. 137; Sankt-peterburg;; Leningradskaya oblast;1989691350097;p5791611i
474;Vera Michalski-Hoffmann;$5.92B;-$97.7M;+$76.5M ;Switzerland;Health Care;Landstrasse 10;Schaffhausen;8208;;1956340730243;l6319263a
475;Maja Hoffmann;$5.92B;-$97.7M;+$76.5M ;Switzerland;Health Care;Schulstrasse 86;Wohlen;5610;;1943338082731;j9368133e
476;Majid Al Futtaim;$5.92B;+$111M;-$684M ;United Arab Emirates;Real-Estate;Liwa Tower;Abu Dhabi;901;Abu Dhabi;1947221361045;t9022480s
477;Edward Roski;$5.90B;-$25.0M;+$79.3M ;United States;Real-Estate;3356 Coventry Court;Baton Rouge;70806;Maine;1958507463356;q6299637g
478;Zhang Lei;$5.90B;-$34.1M;+$261M ;China;Finance;Gao Xin Si Lu San Shi Hao Feng Jing Guan Tian Xia Wu Ye Bu;Xian - Yanta District;;Shaanxi;1986369546577;d8491673f
479;Charles Johnson;$5.89B;-$114M;+$1.08B ;United States;Finance;2978 Chicago Avenue;Goshen;93277;California;1991956775815;m8353668u
480;Richard Branson;$5.88B;-$15.9M;+$161M ;United Kingdom;Diversified;92 Fulford Road;Pentewan;  PL26 5ZX;Pennsylvania;1945369904683;e8266034j
481;Miuccia Prada;$5.88B;-$20.6M;-$70.3M ;Italy;Consumer; Via del Caggio 49; Olmo;52040; Arezzo;1999554383964;m5991035a
482;Vivien Chen;$5.88B;-$125M;+$849M ;Hong Kong;Real-Estate;Yau Luen Bldg;Sham Shui Po;;Hong Kong;1949299438732;m8698480j
483;Marcos Galperin;$5.88B;-$12.2M;-$1.18B ;Argentina;Technology;B Mitre 178;Luján;;Buenos Aires;1985638701157;z5482608h
484;Bidzina Ivanishvili;$5.87B;-$25.0M;+$200M ;Georgia;Diversified;36/38 Lermontov Str;Batumi;;Adsjaria;1971508427703;s8017432g
485;Guenther Fielmann;$5.86B;-$28.1M;-$128M ;Germany;Consumer;Schönwalder Allee 23;Kirchnüchel;23714;  Schleswig-Holstein;1981344015870;m1658160c
486;Patrizio Bertelli;$5.86B;-$45.6M;-$70.4M ;Italy;Consumer; Via dei Serpenti 5; Pertica Bassa;25078; Brescia;1969913580375;c3058059c
487;Pat Stryker;$5.84B;-$85.6M;+$175M ;United States;Health Care;4005 Marietta Street;Santa Rosa;95409;Washington;1977504215981;g2182243s
488;Francis Choi;$5.84B;+$298k;-$198M ;Hong Kong;Real-Estate;Tung Fong;Sheung Shui;;Hong Kong;1953255014750;o6378758i
489;Jeffery Hildebrand;$5.82B;-$133M;+$2.72B ;United States;Energy;3901 West Fork Street;Helena;59601;Montana;1977407907489;d4999608x
490;Li Ping;$5.81B;-$36.7M;+$344M ;China;Industrial;Da Pu Lu 38long 4hao 25f;City Area;;Shanghai;1971788096575;y9731781h
491;Chip Wilson;$5.81B;-$28.1M;-$149M ;Canada;Retail; 3735 rue Levy;  Schefferville; J0C 1G0; Quebec;1966629240819;k8702281a
492;Marie Besnier Beauvalot;$5.80B;-$52.1M;+$314M ;France;Food & Beverage;33 rue Pierre Motte;Sainte-foy-lÈs-lyon;69110;Rhône-Alpes;1957248185115;w8614363w
493;Clive Calder;$5.78B;-$25.0M;+$325M ;United Kingdom;Entertainment;64 Brackley Road;Thwing;  YO25 3LE;Massachusetts;1992846665002;k5832777a
494;Kwon Hyuk-Bin;$5.77B;-$76.0M;-$266M ;Korea;Media & Telecom;93-3, Samdo 2(i)-dong;Jeju-si;;Jeju-do;1982502877574;t7496153y
495;Mark Cuban;$5.75B;-$25.0M;+$826M ;United States;Technology;1362 Norman Street;Huntington Park;90255;Utah;1979746450292;j4003828q
496;Lino Saputo;$5.75B;-$48.0M;+$772M ;Canada;Food & Beverage; 3816 rue des Églies Est;  Oshawa; L1H 7M3; Ontario;1947790363982;j3886332d
497;Prajogo Pangestu;$5.74B;-$74.7M;-$1.03B ;Indonesia;Energy;Jl Prumpung Tgh 33 RT 002/05;Dki Jakarta;13410;Jakarta;2000705293171;o7052034x
498;Charles Dolan & Family;$5.74B;-$35.8M;+$212M ;United States;Media & Telecom;4115 Pineview Drive;Fairmont;56031;California;1990169770959;e4616131d
499;Vladimir Kim;$5.72B;+$2.80M;+$792M ;Kazakhstan;Commodities;Atyrau / Ul. Rembaza ZHastar, bld. 24;Atyrau/gurev;;Atyrauskaya oblast;1955441859768;w8480779b
500;Odd Reitan;$5.72B;-$19.9M;+$669M;Norway;Food & Beverage;Tyrihjellåsen 77;Askim;1814;;1981068009091;l8611405j
